HULIANWANG DIGUI 13F    
1 66417U 25258F   25323.82620674 -.00000103  00000+0  23720-4 0  9998
2 66417  50.0021 358.4189 0012382 283.8909  76.0628 14.26074605  1394
HULIANWANG DIGUI 13G    
1 66418U 25258G   25325.01741478 -.00000166  00000+0 -25224-5 0  9990
2 66418  50.0018 353.3846 0012073 282.0842  77.8719 14.26083363  1569
HULIANWANG DIGUI 13H    
1 66419U 25258H   25325.01623513 -.00000169  00000+0 -35383-5 0  9990
2 66419  50.0014 353.3763 0011489 284.9430  75.0212 14.26239559  1566
HULIANWANG DIGUI 13J    
1 66420U 25258J   25325.01540647 -.00000169  00000+0 -36827-5 0  9992
2 66420  50.0039 353.3787 0010991 289.0184  70.9539 14.26345585  1552
CZ-12 R/B               
1 66421U 25258K   25325.03393728 -.00000086  00000+0  24992-4 0  9997
2 66421  49.9958 352.1358 0064631 171.4236 188.7804 14.42310820  1581
STARLINK-35617          
1 66422U 25259A   25325.66672454 -.01497882  00000+0 -75122-2 0  9999
2 66422  42.9979 172.3458 0001449 267.3244 304.2785 15.83491248  2891
STARLINK-35618          
1 66423U 25259B   25325.66672454 -.01500589  00000+0 -75201-2 0  9997
2 66423  42.9982 172.3415 0001463 264.1811 309.2468 15.83511843  2897
STARLINK-35588          
1 66424U 25259C   25325.66672454 -.01505483  00000+0 -75460-2 0  9993
2 66424  42.9982 172.3370 0001486 261.6740 313.8036 15.83516843  2893
STARLINK-35555          
1 66425U 25259D   25325.66672454 -.01517916  00000+0 -76247-2 0  9992
2 66425  42.9974 172.3293 0001487 262.7772 315.1634 15.83495286  2893
STARLINK-35589          
1 66426U 25259E   25325.66672454 -.01523993  00000+0 -76594-2 0  9990
2 66426  42.9980 172.3251 0001561 263.3199 316.7592 15.83494334  2891
STARLINK-35611          
1 66427U 25259F   25325.66672454 -.01530861  00000+0 -76980-2 0  9992
2 66427  42.9977 172.3191 0001565 261.0756 321.1195 15.83496275  2894
STARLINK-35610          
1 66428U 25259G   25325.66672454 -.01545748  00000+0 -77905-2 0  9991
2 66428  42.9974 172.3128 0001542 265.2608 319.3836 15.83477190  2895
